*******************************************************************************
Ephemeris / WWW_USER Fri Mar  7 10:09:55 2025 Pasadena, USA      / Horizons    
*******************************************************************************
Target body name: (2018 PM20)                     {source: JPL#2}
Center body name: Earth (399)                     {source: DE441}
Center-site name: Mauna Kea
*******************************************************************************
Start time      : A.D. 2018-Nov-23 03:51:00.0000 UT      
Stop  time      : A.D. 2018-Nov-23 16:25:00.0000 UT      
Step-size       : 1 minutes
*******************************************************************************
Target pole/equ : undefined
Target radii    : undefined                                                    
Center geodetic : 204.5278, 19.8260847, 4.21024   {E-lon(deg),Lat(deg),Alt(km)}
Center cylindric: 204.5278, 6006.35451, 2151.0229 {E-lon(deg),Dxy(km),Dz(km)}
Center pole/equ : ITRF93                          {East-longitude positive}
Center radii    : 6378.137, 6378.137, 6356.752 km {Equator_a, b, pole_c}       
Target primary  : Sun
Vis. interferer : MOON (R_eq= 1737.400) km        {source: DE441}
Rel. light bend : Sun                             {source: DE441}
Rel. lght bnd GM: 1.3271E+11 km^3/s^2                                          
Small-body perts: Yes                             {source: SB441-N16}
Atmos refraction: NO (AIRLESS)
RA format       : HMS
Time format     : CAL 
Calendar mode   : Mixed Julian/Gregorian
RTS-only print  : NO       
EOP file        : eop.250306.p250602                                           
EOP coverage    : DATA-BASED 1962-JAN-20 TO 2025-MAR-06. PREDICTS-> 2025-JUN-01
Units conversion: 1 au= 149597870.700 km, c= 299792.458 km/s, 1 day= 86400.0 s 
Table cut-offs 1: Elevation (-90.0deg=NO ),Airmass (>38.000=NO), Daylight (YES)
Table cut-offs 2: Solar elongation (  0.0,180.0=NO ),Local Hour Angle( 0.0=NO )
Table cut-offs 3: RA/DEC angular rate (     0.0=NO )                           
*******************************************************************************
Initial IAU76/J2000 heliocentric ecliptic osculating elements (au, days, deg.):
  EPOCH=  2458343.5 ! 2018-Aug-13.00 (TDB)         Residual RMS= .089003       
   EC= .5103595829140648   QR= .9783824475456468   TP= 2458372.5495769856      
   OM= 141.729241004527    W=  213.3086535448706   IN= 3.923256746335003       
  Equivalent ICRF heliocentric cartesian coordinates (au, au/d):
   X= 8.000585561647119E-01  Y=-6.125483166279821E-01  Z=-2.634816273742420E-01
  VX= 9.656077190407949E-03 VY= 1.708944028933422E-02 VZ= 5.904161592396531E-03
Asteroid physical parameters (km, seconds, rotational period in hours):        
   GM= n.a.                RAD= n.a.               ROTPER= n.a.                
   H= 26.3                 G= .150                 B-V= n.a.                   
                           ALBEDO= n.a.            STYP= n.a.                  
*******************************************************************************
 Date__(UT)__HR:MN     R.A._________(ICRF)_________DEC
******************************************************
$$SOE
 2018-Nov-23 10:00  m  06 22 09.592267 +10 04 37.86680
 2018-Nov-23 10:01  m  06 22 09.509911 +10 04 38.19029
 2018-Nov-23 10:02  m  06 22 09.427537 +10 04 38.51373
 2018-Nov-23 10:03  m  06 22 09.345143 +10 04 38.83712
 2018-Nov-23 10:04  m  06 22 09.262731 +10 04 39.16045
 2018-Nov-23 10:05  m  06 22 09.180300 +10 04 39.48372
 2018-Nov-23 10:06  m  06 22 09.097850 +10 04 39.80694
 2018-Nov-23 10:07  m  06 22 09.015382 +10 04 40.13010
 2018-Nov-23 10:08  m  06 22 08.932895 +10 04 40.45321
 2018-Nov-23 10:09  m  06 22 08.850391 +10 04 40.77626
 2018-Nov-23 10:10  m  06 22 08.767868 +10 04 41.09925
 2018-Nov-23 10:11  m  06 22 08.685326 +10 04 41.42219
 2018-Nov-23 10:12  m  06 22 08.602767 +10 04 41.74507
 2018-Nov-23 10:13  m  06 22 08.520190 +10 04 42.06789
 2018-Nov-23 10:14  m  06 22 08.437595 +10 04 42.39066
 2018-Nov-23 10:15  m  06 22 08.354983 +10 04 42.71337
 2018-Nov-23 10:16  m  06 22 08.272353 +10 04 43.03602
 2018-Nov-23 10:17  m  06 22 08.189705 +10 04 43.35861
 2018-Nov-23 10:18  m  06 22 08.107041 +10 04 43.68115
 2018-Nov-23 10:19  m  06 22 08.024358 +10 04 44.00362
 2018-Nov-23 10:20  m  06 22 07.941659 +10 04 44.32604
 2018-Nov-23 10:21  m  06 22 07.858943 +10 04 44.64840
 2018-Nov-23 10:22  m  06 22 07.776210 +10 04 44.97070
 2018-Nov-23 10:23  m  06 22 07.693460 +10 04 45.29295
 2018-Nov-23 10:24  m  06 22 07.610693 +10 04 45.61513
 2018-Nov-23 10:25  m  06 22 07.527909 +10 04 45.93726
 2018-Nov-23 10:26  m  06 22 07.445109 +10 04 46.25932
 2018-Nov-23 10:27  m  06 22 07.362293 +10 04 46.58133
 2018-Nov-23 10:28  m  06 22 07.279461 +10 04 46.90327
 2018-Nov-23 10:29  m  06 22 07.196612 +10 04 47.22516
 2018-Nov-23 10:30  m  06 22 07.113747 +10 04 47.54698
 2018-Nov-23 10:31  m  06 22 07.030866 +10 04 47.86875
 2018-Nov-23 10:32  m  06 22 06.947970 +10 04 48.19045
 2018-Nov-23 10:33  m  06 22 06.865057 +10 04 48.51210
 2018-Nov-23 10:34  m  06 22 06.782129 +10 04 48.83368
 2018-Nov-23 10:35  m  06 22 06.699186 +10 04 49.15520
 2018-Nov-23 10:36  m  06 22 06.616227 +10 04 49.47666
 2018-Nov-23 10:37  m  06 22 06.533252 +10 04 49.79806
 2018-Nov-23 10:38  m  06 22 06.450263 +10 04 50.11940
 2018-Nov-23 10:39  m  06 22 06.367259 +10 04 50.44068
 2018-Nov-23 10:40  m  06 22 06.284239 +10 04 50.76189
 2018-Nov-23 10:41  m  06 22 06.201205 +10 04 51.08304
 2018-Nov-23 10:42  m  06 22 06.118156 +10 04 51.40414
 2018-Nov-23 10:43  m  06 22 06.035092 +10 04 51.72516
 2018-Nov-23 10:44  m  06 22 05.952014 +10 04 52.04613
 2018-Nov-23 10:45  m  06 22 05.868921 +10 04 52.36703
 2018-Nov-23 10:46  m  06 22 05.785815 +10 04 52.68788
 2018-Nov-23 10:47  m  06 22 05.702694 +10 04 53.00865
 2018-Nov-23 10:48  m  06 22 05.619559 +10 04 53.32937
 2018-Nov-23 10:49  m  06 22 05.536410 +10 04 53.65002
 2018-Nov-23 10:50  m  06 22 05.453247 +10 04 53.97061
 2018-Nov-23 10:51  m  06 22 05.370070 +10 04 54.29114
 2018-Nov-23 10:52  m  06 22 05.286880 +10 04 54.61160
 2018-Nov-23 10:53  m  06 22 05.203677 +10 04 54.93199
 2018-Nov-23 10:54  m  06 22 05.120460 +10 04 55.25233
 2018-Nov-23 10:55  m  06 22 05.037229 +10 04 55.57260
 2018-Nov-23 10:56  m  06 22 04.953986 +10 04 55.89280
 2018-Nov-23 10:57  m  06 22 04.870730 +10 04 56.21295
 2018-Nov-23 10:58  m  06 22 04.787460 +10 04 56.53302
 2018-Nov-23 10:59  m  06 22 04.704178 +10 04 56.85304
 2018-Nov-23 11:00  m  06 22 04.620884 +10 04 57.17298
 2018-Nov-23 11:01  m  06 22 04.537576 +10 04 57.49287
 2018-Nov-23 11:02  m  06 22 04.454257 +10 04 57.81269
 2018-Nov-23 11:03  m  06 22 04.370925 +10 04 58.13244
 2018-Nov-23 11:04  m  06 22 04.287581 +10 04 58.45213
 2018-Nov-23 11:05  m  06 22 04.204224 +10 04 58.77175
 2018-Nov-23 11:06  m  06 22 04.120856 +10 04 59.09131
 2018-Nov-23 11:07  m  06 22 04.037476 +10 04 59.41080
 2018-Nov-23 11:08  m  06 22 03.954084 +10 04 59.73022
 2018-Nov-23 11:09  m  06 22 03.870681 +10 05 00.04958
 2018-Nov-23 11:10  m  06 22 03.787266 +10 05 00.36888
 2018-Nov-23 11:11  m  06 22 03.703840 +10 05 00.68811
 2018-Nov-23 11:12  m  06 22 03.620402 +10 05 01.00727
 2018-Nov-23 11:13  m  06 22 03.536954 +10 05 01.32636
 2018-Nov-23 11:14  m  06 22 03.453494 +10 05 01.64539
 2018-Nov-23 11:15  m  06 22 03.370024 +10 05 01.96435
 2018-Nov-23 11:16  m  06 22 03.286543 +10 05 02.28325
 2018-Nov-23 11:17  m  06 22 03.203051 +10 05 02.60208
 2018-Nov-23 11:18  m  06 22 03.119548 +10 05 02.92084
 2018-Nov-23 11:19  m  06 22 03.036035 +10 05 03.23954
 2018-Nov-23 11:20  m  06 22 02.952512 +10 05 03.55816
 2018-Nov-23 11:21  m  06 22 02.868979 +10 05 03.87673
 2018-Nov-23 11:22  m  06 22 02.785436 +10 05 04.19522
 2018-Nov-23 11:23  m  06 22 02.701883 +10 05 04.51365
 2018-Nov-23 11:24  m  06 22 02.618320 +10 05 04.83200
 2018-Nov-23 11:25  m  06 22 02.534747 +10 05 05.15030
 2018-Nov-23 11:26  m  06 22 02.451165 +10 05 05.46852
 2018-Nov-23 11:27  m  06 22 02.367573 +10 05 05.78667
 2018-Nov-23 11:28  m  06 22 02.283973 +10 05 06.10476
 2018-Nov-23 11:29  m  06 22 02.200362 +10 05 06.42278
 2018-Nov-23 11:30  m  06 22 02.116743 +10 05 06.74073
 2018-Nov-23 11:31  m  06 22 02.033115 +10 05 07.05862
 2018-Nov-23 11:32  m  06 22 01.949478 +10 05 07.37643
 2018-Nov-23 11:33  m  06 22 01.865833 +10 05 07.69418
 2018-Nov-23 11:34  m  06 22 01.782179 +10 05 08.01186
 2018-Nov-23 11:35  m  06 22 01.698516 +10 05 08.32947
 2018-Nov-23 11:36  m  06 22 01.614845 +10 05 08.64701
 2018-Nov-23 11:37  m  06 22 01.531166 +10 05 08.96448
 2018-Nov-23 11:38  m  06 22 01.447479 +10 05 09.28189
 2018-Nov-23 11:39  m  06 22 01.363784 +10 05 09.59922
 2018-Nov-23 11:40  m  06 22 01.280081 +10 05 09.91649
 2018-Nov-23 11:41  m  06 22 01.196370 +10 05 10.23369
 2018-Nov-23 11:42  m  06 22 01.112652 +10 05 10.55081
 2018-Nov-23 11:43  m  06 22 01.028927 +10 05 10.86787
 2018-Nov-23 11:44  m  06 22 00.945194 +10 05 11.18486
 2018-Nov-23 11:45  m  06 22 00.861454 +10 05 11.50178
 2018-Nov-23 11:46  m  06 22 00.777706 +10 05 11.81864
 2018-Nov-23 11:47  m  06 22 00.693952 +10 05 12.13542
 2018-Nov-23 11:48  m  06 22 00.610191 +10 05 12.45213
 2018-Nov-23 11:49  m  06 22 00.526424 +10 05 12.76877
 2018-Nov-23 11:50  m  06 22 00.442649 +10 05 13.08535
 2018-Nov-23 11:51  m  06 22 00.358869 +10 05 13.40185
 2018-Nov-23 11:52  m  06 22 00.275082 +10 05 13.71828
 2018-Nov-23 11:53  m  06 22 00.191289 +10 05 14.03465
 2018-Nov-23 11:54  m  06 22 00.107489 +10 05 14.35094
 2018-Nov-23 11:55  m  06 22 00.023684 +10 05 14.66716
 2018-Nov-23 11:56  m  06 21 59.939873 +10 05 14.98332
 2018-Nov-23 11:57  m  06 21 59.856057 +10 05 15.29940
 2018-Nov-23 11:58  m  06 21 59.772234 +10 05 15.61542
 2018-Nov-23 11:59  m  06 21 59.688407 +10 05 15.93136
 2018-Nov-23 12:00  m  06 21 59.604574 +10 05 16.24723
 2018-Nov-23 12:01  m  06 21 59.520735 +10 05 16.56304
 2018-Nov-23 12:02  m  06 21 59.436892 +10 05 16.87877
